[{"OBJECT_NAME":"STARLINK-1191","OBJECT_ID":"2020-012AW","EPOCH":"2026-03-09T05:05:39.649344","MEAN_MOTION":15.30216929,"ECCENTRICITY":0.00013757,"INCLINATION":53.1617,"RA_OF_ASC_NODE":1.0406,"ARG_OF_PERICENTER":90.2006,"MEAN_ANOMALY":269.9152,"EPHEMERIS_TYPE":0,"CLASSIFICATION_TYPE":"U","NORAD_CAT_ID":45222,"ELEMENT_SET_NO":999,"REV_AT_EPOCH":33544,"BSTAR":0.00035499959,"MEAN_MOTION_DOT":0.00010175,"MEAN_MOTION_DDOT":0},{"OBJECT_NAME":"ICEYE-X31","OBJECT_ID":"2023-174AJ","EPOCH":"2026-03-09T23:06:20.433600","MEAN_MOTION":15.30950809,"ECCENTRICITY":0.00015021,"INCLINATION":97.3851,"RA_OF_ASC_NODE":144.9524,"ARG_OF_PERICENTER":332.6589,"MEAN_ANOMALY":27.4572,"EPHEMERIS_TYPE":0,"CLASSIFICATION_TYPE":"U","NORAD_CAT_ID":58288,"ELEMENT_SET_NO":999,"REV_AT_EPOCH":12955,"BSTAR":0.00066288467,"MEAN_MOTION_DOT":0.00019777,"MEAN_MOTION_DDOT":0}]
